{"type": "FeatureCollection", "features": [ {"type": "Feature", "properties": {"norad_id": 40701, "name": "GAOFEN-8", "group": "resource", "lat": -46.47495837350135, "lon": -172.18219124657472, "alt_km": 461.40039261849324, "timestamp": "2025-12-26T19:22:38.551346+00:00", "meta": {"OBJECT_NAME": "GAOFEN-8", "OBJECT_ID": "2015-030A", "EPOCH": "2025-12-26T14:54:01.356192", "MEAN_MOTION": 15.39070117, "ECCENTRICITY": 0.00115574, "INCLINATION": 97.6903, "RA_OF_ASC_NODE": 179.4428, "ARG_OF_PERICENTER": 90.4127, "MEAN_ANOMALY": 269.8442, "EPHEMERIS_TYPE": 0, "CLASSIFICATION_TYPE": "U", "NORAD_CAT_ID": 40701, "ELEMENT_SET_NO": 999, "REV_AT_EPOCH": 58484, "BSTAR": 0.00082034969, "MEAN_MOTION_DOT": 0.00031825, "MEAN_MOTION_DDOT": 0}, "tle": {"line1": "1 40701U 15030A   25360.62084903  .00031825  00000+0  82035-3 0  9998", "line2": "2 40701  97.6903 179.4428 0011557  90.4127 269.8442 15.39070117584843"}}, "geometry": {"type": "Point", "coordinates": [-172.18219124657472, -46.47495837350135]}}, {"type": "Feature", "properties": {"norad_id": 40718, "name": "CARBONITE 1 (CBNT-1)", "group": "resource", "lat": -66.5174524864694, "lon": -160.76839472548926, "alt_km": 637.6209315857577, "timestamp": "2025-12-26T19:22:38.551356+00:00", "meta": {"OBJECT_NAME": "CARBONITE 1 (CBNT-1)", "OBJECT_ID": "2015-032D", "EPOCH": "2025-12-26T14:49:28.663104", "MEAN_MOTION": 14.82808312, "ECCENTRICITY": 0.00154712, "INCLINATION": 97.6408, "RA_OF_ASC_NODE": 181.0515, "ARG_OF_PERICENTER": 136.8999, "MEAN_ANOMALY": 223.3429, "EPHEMERIS_TYPE": 0, "CLASSIFICATION_TYPE": "U", "NORAD_CAT_ID": 40718, "ELEMENT_SET_NO": 999, "REV_AT_EPOCH": 56376, "BSTAR": 0.00020084205, "MEAN_MOTION_DOT": 1.577e-05, "MEAN_MOTION_DDOT": 0}, "tle": {"line1": "1 40718U 15032D   25360.61769286  .00001577  00000+0  20084-3 0  9998", "line2": "2 40718  97.6408 181.0515 0015471 136.8999 223.3429 14.82808312563769"}}, "geometry": {"type": "Point", "coordinates": [-160.76839472548926, -66.5174524864694]}}, {"type": "Feature", "properties": {"norad_id": 40878, "name": "YAOGAN-27", "group": "resource", "lat": -20.83993830764543, "lon": 165.90019616930525, "alt_km": 1201.1980883479546, "timestamp": "2025-12-26T19:22:38.551367+00:00", "meta": {"OBJECT_NAME": "YAOGAN-27", "OBJECT_ID": "2015-040A", "EPOCH": "2025-12-26T14:42:32.679936", "MEAN_MOTION": 13.16060591, "ECCENTRICITY": 0.00075896, "INCLINATION": 100.1025, "RA_OF_ASC_NODE": 349.6057, "ARG_OF_PERICENTER": 252.4748, "MEAN_ANOMALY": 107.5536, "EPHEMERIS_TYPE": 0, "CLASSIFICATION_TYPE": "U", "NORAD_CAT_ID": 40878, "ELEMENT_SET_NO": 999, "REV_AT_EPOCH": 49496, "BSTAR": -0.0007213356, "MEAN_MOTION_DOT": -3.16e-06, "MEAN_MOTION_DDOT": 0}, "tle": {"line1": "1 40878U 15040A   25360.61287824 -.00000316  00000+0 -72134-3 0  9992", "line2": "2 40878 100.1025 349.6057 0007589 252.4748 107.5536 13.16060591494964"}}, "geometry": {"type": "Point", "coordinates": [165.90019616930525, -20.83993830764543]}}, {"type": "Feature", "properties": {"norad_id": 40894, "name": "GAOFEN-9 01", "group": "resource", "lat": -15.858327020913121, "lon": -143.03458603834594, "alt_km": 643.3783605720637, "timestamp": "2025-12-26T19:22:38.551378+00:00", "meta": {"OBJECT_NAME": "GAOFEN-9 01", "OBJECT_ID": "2015-047A", "EPOCH": "2025-12-26T15:15:20.552256", "MEAN_MOTION": 14.82455968, "ECCENTRICITY": 0.00272551, "INCLINATION": 97.6525, "RA_OF_ASC_NODE": 38.99, "ARG_OF_PERICENTER": 349.2094, "MEAN_ANOMALY": 10.8532, "EPHEMERIS_TYPE": 0, "CLASSIFICATION_TYPE": "U", "NORAD_CAT_ID": 40894, "ELEMENT_SET_NO": 999, "REV_AT_EPOCH": 55462, "BSTAR": 0.00015836286, "MEAN_MOTION_DOT": 1.227e-05, "MEAN_MOTION_DDOT": 0}, "tle": {"line1": "1 40894U 15047A   25360.63565454  .00001227  00000+0  15836-3 0  9993", "line2": "2 40894  97.6525  38.9900 0027255 349.2094  10.8532 14.82455968554625"}}, "geometry": {"type": "Point", "coordinates": [-143.03458603834594, -15.858327020913121]}}, {"type": "Feature", "properties": {"norad_id": 41026, "name": "YAOGAN-28", "group": "resource", "lat": -47.54501347066597, "lon": 146.23879638528396, "alt_km": 504.4433331646105, "timestamp": "2025-12-26T19:22:38.551388+00:00", "meta": {"OBJECT_NAME": "YAOGAN-28", "OBJECT_ID": "2015-064A", "EPOCH": "2025-12-26T14:51:44.190144", "MEAN_MOTION": 15.24572922, "ECCENTRICITY": 0.00126463, "INCLINATION": 97.2815, "RA_OF_ASC_NODE": 138.022, "ARG_OF_PERICENTER": 82.0603, "MEAN_ANOMALY": 278.207, "EPHEMERIS_TYPE": 0, "CLASSIFICATION_TYPE": "U", "NORAD_CAT_ID": 41026, "ELEMENT_SET_NO": 999, "REV_AT_EPOCH": 56436, "BSTAR": 0.00034766893, "MEAN_MOTION_DOT": 8.517e-05, "MEAN_MOTION_DDOT": 0}, "tle": {"line1": "1 41026U 15064A   25360.61926146  .00008517  00000+0  34767-3 0  9990", "line2": "2 41026  97.2815 138.0220 0012646  82.0603 278.2070 15.24572922564360"}}, "geometry": {"type": "Point", "coordinates": [146.23879638528396, -47.54501347066597]}}, {"type": "Feature", "properties": {"norad_id": 41038, "name": "YAOGAN-29", "group": "resource", "lat": 71.14446146061097, "lon": -131.59026942938704, "alt_km": 612.8949469593881, "timestamp": "2025-12-26T19:22:38.551398+00:00", "meta": {"OBJECT_NAME": "YAOGAN-29", "OBJECT_ID": "2015-069A", "EPOCH": "2025-12-26T15:39:26.303328", "MEAN_MOTION": 14.82898868, "ECCENTRICITY": 9.473e-05, "INCLINATION": 98.0208, "RA_OF_ASC_NODE": 23.8677, "ARG_OF_PERICENTER": 158.1481, "MEAN_ANOMALY": 201.9773, "EPHEMERIS_TYPE": 0, "CLASSIFICATION_TYPE": "U", "NORAD_CAT_ID": 41038, "ELEMENT_SET_NO": 999, "REV_AT_EPOCH": 54505, "BSTAR": 9.4041417e-05, "MEAN_MOTION_DOT": 7.08e-06, "MEAN_MOTION_DDOT": 0}, "tle": {"line1": "1 41038U 15069A   25360.65238777  .00000708  00000+0  94041-4 0  9994", "line2": "2 41038  98.0208  23.8677 0000947 158.1481 201.9773 14.82898868545056"}}, "geometry": {"type": "Point", "coordinates": [-131.59026942938704, 71.14446146061097]}}, {"type": "Feature", "properties": {"norad_id": 41167, "name": "KENT RIDGE 1", "group": "resource", "lat": 9.233672542717743, "lon": 144.19435432887266, "alt_km": 494.45772757408577, "timestamp": "2025-12-26T19:22:38.551408+00:00", "meta": {"OBJECT_NAME": "KENT RIDGE 1", "OBJECT_ID": "2015-077B", "EPOCH": "2025-12-26T12:55:02.392032", "MEAN_MOTION": 15.21738831, "ECCENTRICITY": 0.00085236, "INCLINATION": 14.9791, "RA_OF_ASC_NODE": 108.7428, "ARG_OF_PERICENTER": 325.4812, "MEAN_ANOMALY": 34.4956, "EPHEMERIS_TYPE": 0, "CLASSIFICATION_TYPE": "U", "NORAD_CAT_ID": 41167, "ELEMENT_SET_NO": 999, "REV_AT_EPOCH": 55474, "BSTAR": 0.00016758963, "MEAN_MOTION_DOT": 4.67e-05, "MEAN_MOTION_DDOT": 0}, "tle": {"line1": "1 41167U 15077B   25360.53822213  .00004670  00000+0  16759-3 0  9998", "line2": "2 41167  14.9791 108.7428 0008523 325.4812  34.4956 15.21738831554740"}}, "geometry": {"type": "Point", "coordinates": [144.19435432887266, 9.233672542717743]}}, {"type": "Feature", "properties": {"norad_id": 41194, "name": "GAOFEN-4", "group": "resource", "lat": 0.17124594571604082, "lon": 131.8762784927107, "alt_km": 35778.33751155372, "timestamp": "2025-12-26T19:22:38.551420+00:00", "meta": {"OBJECT_NAME": "GAOFEN-4", "OBJECT_ID": "2015-083A", "EPOCH": "2025-12-26T16:21:31.142880", "MEAN_MOTION": 1.00269117, "ECCENTRICITY": 0.00028194, "INCLINATION": 0.2038, "RA_OF_ASC_NODE": 81.9899, "ARG_OF_PERICENTER": 94.1449, "MEAN_ANOMALY": 270.3676, "EPHEMERIS_TYPE": 0, "CLASSIFICATION_TYPE": "U", "NORAD_CAT_ID": 41194, "ELEMENT_SET_NO": 999, "REV_AT_EPOCH": 3680, "BSTAR": 0, "MEAN_MOTION_DOT": -3.12e-06, "MEAN_MOTION_DDOT": 0}, "tle": {"line1": "1 41194U 15083A   25360.68161045 -.00000312  00000+0  00000+0 0  9998", "line2": "2 41194   0.2038  81.9899 0002819  94.1449 270.3676  1.00269117 36804"}}, "geometry": {"type": "Point", "coordinates": [131.8762784927107, 0.17124594571604082]}}, {"type": "Feature", "properties": {"norad_id": 41240, "name": "JASON-3", "group": "resource", "lat": -4.563592308974509, "lon": 126.21474113689467, "alt_km": 1312.8096475322209, "timestamp": "2025-12-26T19:22:38.551431+00:00", "meta": {"OBJECT_NAME": "JASON-3", "OBJECT_ID": "2016-002A", "EPOCH": "2025-12-26T15:40:30.293760", "MEAN_MOTION": 12.87627185, "ECCENTRICITY": 0.00073318, "INCLINATION": 66.0407, "RA_OF_ASC_NODE": 128.5728, "ARG_OF_PERICENTER": 271.6466, "MEAN_ANOMALY": 88.3713, "EPHEMERIS_TYPE": 0, "CLASSIFICATION_TYPE": "U", "NORAD_CAT_ID": 41240, "ELEMENT_SET_NO": 999, "REV_AT_EPOCH": 46503, "BSTAR": 0.00019363039, "MEAN_MOTION_DOT": -1.3e-07, "MEAN_MOTION_DDOT": 0}, "tle": {"line1": "1 41240U 16002A   25360.65312840 -.00000013  00000+0  19363-3 0  9994", "line2": "2 41240  66.0407 128.5728 0007331 271.6466  88.3713 12.87627185465030"}}, "geometry": {"type": "Point", "coordinates": [126.21474113689467, -4.563592308974509]}}, {"type": "Feature", "properties": {"norad_id": 41335, "name": "SENTINEL-3A", "group": "resource", "lat": -26.74239144375395, "lon": -118.76501916897688, "alt_km": 808.5489528390663, "timestamp": "2025-12-26T19:22:38.551441+00:00", "meta": {"OBJECT_NAME": "SENTINEL-3A", "OBJECT_ID": "2016-011A", "EPOCH": "2025-12-26T15:02:38.974272", "MEAN_MOTION": 14.26736012, "ECCENTRICITY": 8.869e-05, "INCLINATION": 98.6296, "RA_OF_ASC_NODE": 65.4455, "ARG_OF_PERICENTER": 97.8488, "MEAN_ANOMALY": 262.2793, "EPHEMERIS_TYPE": 0, "CLASSIFICATION_TYPE": "U", "NORAD_CAT_ID": 41335, "ELEMENT_SET_NO": 999, "REV_AT_EPOCH": 51345, "BSTAR": 7.7863725e-05, "MEAN_MOTION_DOT": 1.45e-06, "MEAN_MOTION_DDOT": 0}, "tle": {"line1": "1 41335U 16011A   25360.62683998  .00000145  00000+0  77864-4 0  9997", "line2": "2 41335  98.6296  65.4455 0000886  97.8488 262.2793 14.26736012513454"}}, "geometry": {"type": "Point", "coordinates": [-118.76501916897688, -26.74239144375395]}}]}